INTELSAT 23 (IS-23)     
1 38867U 12057A   26195.44754080 -.00000292  00000+0  00000+0 0  9994
2 38867   0.0143  28.5544 0000352 163.7563 208.1245  1.00273615 50227
FM-6                    
1 39360U 13058A   26194.96565503 -.00000021  00000+0  00000+0 0  9991
2 39360   0.0142  33.4803 0001390 144.8411 344.7900  1.00270909 46349
INTELSAT 30 (IS-30)     
1 40271U 14062A   26194.82722561 -.00000156  00000+0  00000+0 0  9993
2 40271   0.0159  46.9890 0001468 332.6212 114.8422  1.00270855  7068
DIRECTV 14              
1 40333U 14078B   26195.53943366 -.00000133  00000+0  00000+0 0  9991
2 40333   0.0122  43.3357 0000614 293.1812  50.8330  1.00268294 42313
DIRECTV 15              
1 40663U 15026A   26195.48655975 -.00000110  00000+0  00000+0 0  9996
2 40663   0.0174  71.8475 0000069 257.5366  35.2500  1.00271654 40739
SKY MEXICO-1            
1 40664U 15026B   26195.54342035 -.00000242  00000+0  00000+0 0  9990
2 40664   0.0172  32.6899 0002349 103.2479 273.2909  1.00270202 40722
INTELSAT 34 (IS-34)     
1 40874U 15039A   26195.26286936 -.00000292  00000+0  00000+0 0  9998
2 40874   0.0110 352.6276 0000554   9.3806 329.2648  1.00271009 39903
INTELSAT 31 (IS-31)     
1 41581U 16035A   26194.89862426 -.00000156  00000+0  00000+0 0  9992
2 41581   0.0229 276.7908 0001186  13.0074 230.4271  1.00270917 36953
INTELSAT 36 (IS-36)     
1 41747U 16053A   26195.57262941 -.00000032  00000+0  00000+0 0  9991
2 41747   0.0107  27.5590 0002426 311.9912 227.5056  1.00270234 36231
INTELSAT 32E (IS-32E)   
1 41945U 17007B   26194.76633344  .00000000  00000+0  00000+0 0  9994
2 41945   0.0235  44.2470 0000484 284.5035 195.6038  1.00269936 34497
INTELSAT 35E (IS-35E)   
1 42818U 17041A   26195.48088591  .00000000  00000+0  00000+0 0  9990
2 42818   0.0254  54.7914 0001616  56.4682 319.7052  1.00267101 33080
INTELSAT 37E (IS-37E)   
1 42950U 17059A   26195.41287247 -.00000148  00000+0  00000+0 0  9992
2 42950   0.0180  39.3642 0002555  84.0049 299.5250  1.00269751 32334
AZERSPACE 2 (IS-38)     
1 43632U 18074A   26195.56794713  .00000000  00000+0  00000+0 0  9991
2 43632   0.0270  52.9342 0001271  70.5984  58.4749  1.00270081 28723
HORIZONS-3E             
1 43633U 18074B   26194.64002854 -.00000035  00000+0  00000+0 0  9997
2 43633   0.0498 224.9289 0000940  53.6947  52.2963  1.00270118 28608
AT&T T-16               
1 44333U 19034A   26195.53908699 -.00000122  00000+0  00000+0 0  9990
2 44333   0.0148  68.9171 0000616 249.2160  67.4649  1.00268403 25907
INTELSAT 39 (IS-39)     
1 44476U 19049B   26194.92525137  .00000000  00000+0  00000+0 0  9992
2 44476   0.0241  49.4551 0000732 282.1376 355.2527  1.00272225 25392
GALAXY 30 (G-30)        
1 46114U 20056C   26195.53432030  .00000029  00000+0  00000+0 0  9991
2 46114   0.0160  45.8535 0001967  69.3103 244.5766  1.00271569 21569
GALAXY 33 (G-33)        
1 54026U 22128A   26195.53267362  .00000071  00000+0  00000+0 0  9995
2 54026   0.0132  30.7698 0001772  89.6874 230.6964  1.00271968 14017
GALAXY 34 (G-34)        
1 54027U 22128B   26195.53354030  .00000000  00000+0  00000+0 0  9997
2 54027   0.0267  39.5061 0001509  86.9762 228.9983  1.00275566 14189
GALAXY 31 (G-31)        
1 54243U 22153A   26195.53510030  .00000006  00000+0  00000+0 0  9995
2 54243   0.0159  69.1234 0000963  50.6170 244.2713  1.00270964  7400
GALAXY 32 (G-32)        
1 54244U 22153B   26195.54099367 -.00000182  00000+0  00000+0 0  9998
2 54244   0.0107  43.5038 0001418   4.4759 348.1671  1.00269851 13416
GALAXY 35 (G-35)        
1 54741U 22170A   26195.54056034 -.00000170  00000+0  00000+0 0  9990
2 54741   0.0202  80.2306 0001930  36.6850 276.9639  1.00270062 13168
GALAXY 36 (G-36)        
1 54742U 22170B   26195.54142700 -.00000193  00000+0  00000+0 0  9992
2 54742   0.0041 124.2203 0002388 335.9041 298.1858  1.00270300 13041
GALAXY 37 (G-37)        
1 57493U 23112A   26194.96357502  .00000042  00000+0  00000+0 0  9990
2 57493   0.0218  73.5270 0001739  44.1230  34.0616  1.00271325 10810
