OBJECT_NAME,OBJECT_ID,EPOCH,MEAN_MOTION,ECCENTRICITY,INCLINATION,RA_OF_ASC_NODE,ARG_OF_PERICENTER,MEAN_ANOMALY,EPHEMERIS_TYPE,CLASSIFICATION_TYPE,NORAD_CAT_ID,ELEMENT_SET_NO,REV_AT_EPOCH,BSTAR,MEAN_MOTION_DOT,MEAN_MOTION_DDOT
INTELSAT 23 (IS-23),2012-057A,2026-07-14T10:44:27.525120,1.00273615,.00003524,0.0143,28.5544,163.7563,208.1245,0,U,38867,999,5022,0,-.292E-5,0
FM-6,2013-058A,2026-07-13T23:10:32.594592,1.00270909,.00013903,0.0142,33.4803,144.8411,344.7900,0,U,39360,999,4634,0,-.21E-6,0
INTELSAT 30 (IS-30),2014-062A,2026-07-13T19:51:12.292704,1.00270855,.00014688,0.0159,46.9890,332.6212,114.8422,0,U,40271,999,706,0,-.156E-5,0
DIRECTV 14,2014-078B,2026-07-14T12:56:47.068224,1.00268294,.00006144,0.0122,43.3357,293.1812,50.8330,0,U,40333,999,4231,0,-.133E-5,0
DIRECTV 15,2015-026A,2026-07-14T11:40:38.762400,1.00271654,.00000691,0.0174,71.8475,257.5366,35.2500,0,U,40663,999,4073,0,-.11E-5,0
SKY MEXICO-1,2015-026B,2026-07-14T13:02:31.518240,1.00270202,.00023494,0.0172,32.6899,103.2479,273.2909,0,U,40664,999,4072,0,-.242E-5,0
INTELSAT 34 (IS-34),2015-039A,2026-07-14T06:18:31.912704,1.00271009,.00005547,0.0110,352.6276,9.3806,329.2648,0,U,40874,999,3990,0,-.292E-5,0
INTELSAT 31 (IS-31),2016-035A,2026-07-13T21:34:01.136064,1.00270917,.0001186,0.0229,276.7908,13.0074,230.4271,0,U,41581,999,3695,0,-.156E-5,0
INTELSAT 36 (IS-36),2016-053A,2026-07-14T13:44:35.181024,1.00270234,.00024262,0.0107,27.5590,311.9912,227.5056,0,U,41747,999,3623,0,-.32E-6,0
INTELSAT 32E (IS-32E),2017-007B,2026-07-13T18:23:31.209216,1.00269936,.00004848,0.0235,44.2470,284.5035,195.6038,0,U,41945,999,3449,0,0,0
INTELSAT 35E (IS-35E),2017-041A,2026-07-14T11:32:28.542624,1.00267101,.00016166,0.0254,54.7914,56.4682,319.7052,0,U,42818,999,3308,0,0,0
INTELSAT 37E (IS-37E),2017-059A,2026-07-14T09:54:32.181408,1.00269751,.00025553,0.0180,39.3642,84.0049,299.5250,0,U,42950,999,3233,0,-.148E-5,0
AZERSPACE 2 (IS-38),2018-074A,2026-07-14T13:37:50.632032,1.00270081,.00012714,0.0270,52.9342,70.5984,58.4749,0,U,43632,999,2872,0,0,0
HORIZONS-3E,2018-074B,2026-07-13T15:21:38.465856,1.00270118,.00009408,0.0498,224.9289,53.6947,52.2963,0,U,43633,999,2860,0,-.35E-6,0
AT&T T-16,2019-034A,2026-07-14T12:56:17.115936,1.00268403,.00006163,0.0148,68.9171,249.2160,67.4649,0,U,44333,999,2590,0,-.122E-5,0
INTELSAT 39 (IS-39),2019-049B,2026-07-13T22:12:21.718368,1.00272225,.00007329,0.0241,49.4551,282.1376,355.2527,0,U,44476,999,2539,0,0,0
GALAXY 30 (G-30),2020-056C,2026-07-14T12:49:25.273920,1.00271569,.00019675,0.0160,45.8535,69.3103,244.5766,0,U,46114,999,2156,0,.29E-6,0
GALAXY 33 (G-33),2022-128A,2026-07-14T12:47:03.000768,1.00271968,.00017729,0.0132,30.7698,89.6874,230.6964,0,U,54026,999,1401,0,.71E-6,0
GALAXY 34 (G-34),2022-128B,2026-07-14T12:48:17.881920,1.00275566,.0001509,0.0267,39.5061,86.9762,228.9983,0,U,54027,999,1418,0,0,0
GALAXY 31 (G-31),2022-153A,2026-07-14T12:50:32.665920,1.00270964,.00009631,0.0159,69.1234,50.6170,244.2713,0,U,54243,999,740,0,.6E-7,0
GALAXY 32 (G-32),2022-153B,2026-07-14T12:59:01.853088,1.00269851,.00014186,0.0107,43.5038,4.4759,348.1671,0,U,54244,999,1341,0,-.182E-5,0
GALAXY 35 (G-35),2022-170A,2026-07-14T12:58:24.413376,1.00270062,.00019302,0.0202,80.2306,36.6850,276.9639,0,U,54741,999,1316,0,-.17E-5,0
GALAXY 36 (G-36),2022-170B,2026-07-14T12:59:39.292800,1.00270300,.00023883,0.0041,124.2203,335.9041,298.1858,0,U,54742,999,1304,0,-.193E-5,0
GALAXY 37 (G-37),2023-112A,2026-07-13T23:07:32.881728,1.00271325,.00017395,0.0218,73.5270,44.1230,34.0616,0,U,57493,999,1081,0,.42E-6,0
